[{"OBJECT_NAME":"ICEYE-X7","OBJECT_ID":"2020-068L","EPOCH":"2026-03-09T22:52:28.702272","MEAN_MOTION":15.29152508,"ECCENTRICITY":0.00068409,"INCLINATION":97.7412,"RA_OF_ASC_NODE":31.2076,"ARG_OF_PERICENTER":332.3045,"MEAN_ANOMALY":27.7829,"EPHEMERIS_TYPE":0,"CLASSIFICATION_TYPE":"U","NORAD_CAT_ID":46496,"ELEMENT_SET_NO":999,"REV_AT_EPOCH":29961,"BSTAR":0.0005654802,"MEAN_MOTION_DOT":0.00015947,"MEAN_MOTION_DDOT":0},{"OBJECT_NAME":"STARLINK-30527","OBJECT_ID":"2023-153S","EPOCH":"2026-03-09T09:19:53.394816","MEAN_MOTION":15.27585536,"ECCENTRICITY":0.00028423,"INCLINATION":43.0021,"RA_OF_ASC_NODE":200.0773,"ARG_OF_PERICENTER":280.8447,"MEAN_ANOMALY":79.2084,"EPHEMERIS_TYPE":0,"CLASSIFICATION_TYPE":"U","NORAD_CAT_ID":58007,"ELEMENT_SET_NO":999,"REV_AT_EPOCH":13741,"BSTAR":6.8950262e-5,"MEAN_MOTION_DOT":1.635e-5,"MEAN_MOTION_DDOT":0}]
